LUSAT (LO-19)           
1 20442U 90005G   26068.62099839  .00000189  00000+0  84338-4 0  9991
2 20442  98.8938  87.6461 0012340 134.6824 225.5367 14.34087969888127
BRITE-AUSTRIA           
1 39091U 13009F   26068.46526738  .00000300  00000+0  11657-3 0  9993
2 39091  98.3955 250.3783 0010348 171.7863 188.3495 14.36496020682739
